{
    "links": {
        "self": "http://www.neowsapp.com/rest/v1/neo/3825165?api_key=iIulBulltgU6a56xZRHN4H3l9WmuAYTsLGpBGhQ2"
    },
    "id": "3825165",
    "neo_reference_id": "3825165",
    "name": "(2018 LD4)",
    "designation": "2018 LD4",
    "nasa_jpl_url": "http://ssd.jpl.nasa.gov/sbdb.cgi?sstr=3825165",
    "absolute_magnitude_h": 25.0,
    "estimated_diameter": {
        "kilometers": {
            "estimated_diameter_min": 0.02658,
            "estimated_diameter_max": 0.0594346868
        },
        "meters": {
            "estimated_diameter_min": 26.58,
            "estimated_diameter_max": 59.4346868419
        },
        "miles": {
            "estimated_diameter_min": 0.0165160412,
            "estimated_diameter_max": 0.0369309908
        },
        "feet": {
            "estimated_diameter_min": 87.2047272,
            "estimated_diameter_max": 194.9956979785
        }
    },
    "is_potentially_hazardous_asteroid": false,
    "close_approach_data": [
        {
            "close_approach_date": "2018-06-17",
            "close_approach_date_full": "2018-Jun-17 18:43",
            "epoch_date_close_approach": 1529260980000,
            "relative_velocity": {
                "kilometers_per_second": "9.2396323275",
                "kilometers_per_hour": "33262.6763789815",
                "miles_per_hour": "20668.1335533732"
            },
            "miss_distance": {
                "astronomical": "0.037903381",
                "lunar": "14.744415209",
                "kilometers": "5670265.06339847",
                "miles": "3523339.330980086"
            },
            "orbiting_body": "Earth"
        }
    ],
    "orbital_data": {
        "orbit_id": "3",
        "orbit_determination_date": "2018-07-13 06:55:23",
        "first_observation_date": "2018-06-11",
        "last_observation_date": "2018-07-08",
        "data_arc_in_days": 27,
        "observations_used": 27,
        "orbit_uncertainty": "8",
        "minimum_orbit_intersection": ".0209813",
        "jupiter_tisserand_invariant": "3.558",
        "epoch_osculation": "2458283.5",
        "eccentricity": ".5086133329494473",
        "semi_major_axis": "2.096930571343484",
        "inclination": "10.02076776322372",
        "ascending_node_longitude": "81.98828903124499",
        "orbital_period": "1109.109700944202",
        "perihelion_distance": "1.030403724488886",
        "perihelion_argument": "168.2831855602539",
        "aphelion_distance": "3.163457418198083",
        "perihelion_time": "2458274.591494792860",
        "mean_anomaly": "2.891564172453076",
        "mean_motion": ".3245846643425142",
        "equinox": "J2000",
        "orbit_class": {
            "orbit_class_type": "AMO",
            "orbit_class_description": "Near-Earth asteroid orbits similar to that of 1221 Amor",
            "orbit_class_range": "1.017 AU < q (perihelion) < 1.3 AU"
        }
    },
    "is_sentry_object": false
}